{
    "CCSDS_OMM_VERS": "3.0",
    "COMMENT": "GENERATED VIA SPACE-TRACK.ORG API",
    "CREATION_DATE": "2025-11-24T07:26:19",
    "ORIGINATOR": "18 SPCS",
    "OBJECT_NAME": "BEIDOU 3M12",
    "OBJECT_ID": "2018-067B",
    "CENTER_NAME": "EARTH",
    "REF_FRAME": "TEME",
    "TIME_SYSTEM": "UTC",
    "MEAN_ELEMENT_THEORY": "SGP4",
    "EPOCH": "2025-11-23T22:12:31.275936",
    "MEAN_MOTION": "1.86227173",
    "ECCENTRICITY": "0.00056900",
    "INCLINATION": "54.1804",
    "RA_OF_ASC_NODE": "187.9661",
    "ARG_OF_PERICENTER": "37.7102",
    "MEAN_ANOMALY": "322.4245",
    "EPHEMERIS_TYPE": "0",
    "CLASSIFICATION_TYPE": "U",
    "NORAD_CAT_ID": "43603",
    "ELEMENT_SET_NO": "999",
    "REV_AT_EPOCH": "4932",
    "BSTAR": "0.00000000000000",
    "MEAN_MOTION_DOT": "0.00000068",
    "MEAN_MOTION_DDOT": "0.0000000000000",
    "SEMIMAJOR_AXIS": "27906.571",
    "PERIOD": "773.249",
    "APOAPSIS": "21544.315",
    "PERIAPSIS": "21512.557",
    "OBJECT_TYPE": "PAYLOAD",
    "RCS_SIZE": "LARGE",
    "COUNTRY_CODE": "PRC",
    "LAUNCH_DATE": "2018-08-24",
    "SITE": "XSC",
    "DECAY_DATE": null,
    "FILE": "4896998",
    "GP_ID": "303367821",
    "TLE_LINE0": "0 BEIDOU 3M12",
    "TLE_LINE1": "1 43603U 18067B   25327.92536199  .00000068  00000-0  00000+0 0  9994",
    "TLE_LINE2": "2 43603  54.1804 187.9661 0005690  37.7102 322.4245  1.86227173 49325"
}